NORAD_CAT_ID,OBJECT_NAME,OBJECT_TYPE,EPOCH,MEAN_MOTION,ECCENTRICITY,INCLINATION,RA_OF_ASC_NODE,ARG_OF_PERICENTER,MEAN_ANOMALY,BSTAR,MEAN_MOTION_DOT,MEAN_MOTION_DDOT,TLE_LINE0,TLE_LINE1,TLE_LINE2,SEMIMAJOR_AXIS,PERIOD,APOGEE,PERIGEE,DECAYED
53390.0,STARLINK-4517,PAYLOAD,2024-05-02 17:45:20,15.08834232,0.0001274,53.2183,278.5782,84.5008,275.6129,-3.3676e-06,-3.41e-06,0.0,0 STARLINK-4517,1 53390U 22097C   24123.73982597 -.00000341  00000-0 -33676-5 0  9992,2 53390  53.2183 278.5782 0001274  84.5008 275.6129 15.08834232 95970,6917.898,95.438,540.644,538.882,0.0
53390.0,STARLINK-4517,PAYLOAD,2024-05-03 03:17:39,15.08839307,0.0001303,53.2178,276.7937,80.3065,279.8074,6.547e-05,7.54e-06,0.0,0 STARLINK-4517,1 53390U 22097C   24124.13726197  .00000754  00000-0  65470-4 0  9991,2 53390  53.2178 276.7937 0001303  80.3065 279.8074 15.08839307 96037,6917.883,95.438,540.649,538.846,0.0
53390.0,STARLINK-4517,PAYLOAD,2024-05-03 14:25:21,15.08843063,0.0001406,53.2185,274.7121,84.8076,275.3077,9.0216e-05,1.148e-05,0.0,0 STARLINK-4517,1 53390U 22097C   24124.60094008  .00001148  00000-0  90216-4 0  9996,2 53390  53.2185 274.7121 0001406  84.8076 275.3077 15.08843063 96907,6917.871,95.437,540.709,538.763,0.0
53390.0,STARLINK-4517,PAYLOAD,2024-05-03 19:11:30,15.08846295,0.0001441,53.2177,273.818,79.2262,280.8892,0.00018957,2.731e-05,0.0,0 STARLINK-4517,1 53390U 22097C   24124.79965903  .00002731  00000-0  18957-3 0  9997,2 53390  53.2177 273.8180 0001441  79.2262 280.8892 15.08846295 96936,6917.861,95.437,540.723,538.729,0.0
53390.0,STARLINK-4517,PAYLOAD,2024-05-04 09:29:59,15.08834006,0.0001371,53.2156,271.144,88.1624,271.9525,0.00013353,1.838e-05,0.0,0 STARLINK-4517,1 53390U 22097C   24125.39582645  .00001838  00000-0  13353-3 0  9994,2 53390  53.2156 271.1440 0001371  88.1624 271.9525 15.08834006 96229,6917.899,95.438,540.712,538.815,0.0
53390.0,STARLINK-4517,PAYLOAD,2024-05-05 14:06:55,15.08847879,0.0001259,53.2173,265.7924,83.1282,276.9854,0.00020799,3.025e-05,0.0,0 STARLINK-4517,1 53390U 22097C   24126.58814286  .00003025  00000-0  20799-3 0  9997,2 53390  53.2173 265.7924 0001259  83.1282 276.9854 15.08847879 97205,6917.856,95.437,540.592,538.85,0.0
53390.0,STARLINK-4517,PAYLOAD,2024-05-05 15:42:18,15.08852455,0.0001225,53.2171,265.4948,85.1496,274.9636,0.00019214,2.772e-05,0.0,0 STARLINK-4517,1 53390U 22097C   24126.65438042  .00002772  00000-0  19214-3 0  9995,2 53390  53.2171 265.4948 0001225  85.1496 274.9636 15.08852455 96412,6917.842,95.437,540.555,538.86,0.0
53390.0,STARLINK-4517,PAYLOAD,2024-05-06 12:22:19,15.08846414,0.000126,53.2172,261.6293,85.2599,274.8537,0.00023233,3.412e-05,0.0,0 STARLINK-4517,1 53390U 22097C   24127.51550191  .00003412  00000-0  23233-3 0  9999,2 53390  53.2172 261.6293 0001260  85.2599 274.8537 15.08846414 96549,6917.861,95.437,540.597,538.854,0.0
53390.0,STARLINK-4517,PAYLOAD,2024-05-06 13:57:41,15.08859137,0.0001361,53.2174,261.3318,82.4441,277.6706,-0.00014546,-2.603e-05,0.0,0 STARLINK-4517,1 53390U 22097C   24127.58173266 -.00002603  00000-0 -14546-3 0  9990,2 53390  53.2174 261.3318 0001361  82.4441 277.6706 15.08859137 97358,6917.822,95.436,540.628,538.745,0.0
53390.0,STARLINK-4517,PAYLOAD,2024-05-06 15:33:05,15.08852056,0.0001273,53.2178,261.0329,96.3464,263.7673,0.00032463,4.884e-05,0.0,0 STARLINK-4517,1 53390U 22097C   24127.64797814  .00004884  00000-0  32463-3 0  9997,2 53390  53.2178 261.0329 0001273  96.3464 263.7673 15.08852056 97365,6917.844,95.437,540.589,538.828,0.0
53390.0,STARLINK-4517,PAYLOAD,2024-05-07 13:48:29,15.08846979,0.0001391,53.2172,256.8712,85.423,274.6921,6.6699e-05,7.74e-06,0.0,0 STARLINK-4517,1 53390U 22097C   24128.57533769  .00000774  00000-0  66699-4 0  9990,2 53390  53.2172 256.8712 0001391  85.4230 274.6921 15.08846979 97508,6917.859,95.437,540.686,538.762,0.0
53390.0,STARLINK-4517,PAYLOAD,2024-05-07 15:23:52,15.08849185,0.0001331,53.2169,256.5764,74.4868,285.6271,0.0001268,1.731e-05,0.0,0 STARLINK-4517,1 53390U 22097C   24128.64157745  .00001731  00000-0  12680-3 0  9998,2 53390  53.2169 256.5764 0001331  74.4868 285.6271 15.08849185 96711,6917.852,95.437,540.638,538.797,0.0
53390.0,STARLINK-4517,PAYLOAD,2024-05-08 12:03:53,15.08833787,0.0001103,53.2165,252.7076,68.4916,291.6194,-1.5191e-05,-5.29e-06,0.0,0 STARLINK-4517,1 53390U 22097C   24129.50270582 -.00000529  00000-0 -15191-4 0  9996,2 53390  53.2165 252.7076 0001103  68.4916 291.6194 15.08833787 96841,6917.899,95.438,540.527,539.001,0.0
53390.0,STARLINK-4517,PAYLOAD,2024-05-08 13:39:16,15.08836292,0.0001139,53.2161,252.4103,67.5969,292.5144,1.9232e-05,1.8e-07,0.0,0 STARLINK-4517,1 53390U 22097C   24129.56894498  .00000018  00000-0  19232-4 0  9991,2 53390  53.2161 252.4103 0001139  67.5969 292.5144 15.08836292 97651,6917.892,95.438,540.545,538.969,0.0
53390.0,STARLINK-4517,PAYLOAD,2024-05-08 15:14:39,15.08842094,0.0001156,53.2168,252.1127,77.8935,282.2186,1.4155e-06,-2.65e-06,0.0,0 STARLINK-4517,1 53390U 22097C   24129.63518093 -.00000265  00000-0  14155-5 0  9998,2 53390  53.2168 252.1127 0001156  77.8935 282.2186 15.08842094 96868,6917.874,95.437,540.539,538.939,0.0
53390.0,STARLINK-4517,PAYLOAD,2024-05-09 13:30:03,15.08848044,0.0001101,53.2165,247.95,76.2401,283.8713,0.00029353,4.388e-05,0.0,0 STARLINK-4517,1 53390U 22097C   24130.56254295  .00004388  00000-0  29353-3 0  9996,2 53390  53.2165 247.9500 0001101  76.2401 283.8713 15.08848044 97802,6917.856,95.437,540.482,538.959,0.0
53390.0,STARLINK-4517,PAYLOAD,2024-05-09 15:05:26,15.08850006,0.0001098,53.2161,247.6539,83.0648,277.0469,0.0003384,5.103e-05,0.0,0 STARLINK-4517,1 53390U 22097C   24130.62878037  .00005103  00000-0  33840-3 0  9991,2 53390  53.2161 247.6539 0001098  83.0648 277.0469 15.08850006 97816,6917.85,95.437,540.474,538.955,0.0
53390.0,STARLINK-4517,PAYLOAD,2024-05-10 13:20:51,15.08841177,7.28e-05,53.2165,243.4907,57.9395,302.1668,0.00019389,2.8e-05,0.0,0 STARLINK-4517,1 53390U 22097C   24131.55614740  .00002800  00000-0  19389-3 0  9996,2 53390  53.2165 243.4907 0000728  57.9395 302.1668 15.08841177 97158,6917.877,95.437,540.245,539.238,0.0
53390.0,STARLINK-4517,PAYLOAD,2024-05-10 16:31:37,15.08851793,0.0001195,53.2159,242.8998,108.019,252.0932,0.00037394,5.67e-05,0.0,0 STARLINK-4517,1 53390U 22097C   24131.68862407  .00005670  00000-0  37394-3 0  9999,2 53390  53.2159 242.8998 0001195 108.0190 252.0932 15.08851793 97178,6917.844,95.437,540.536,538.883,0.0
53390.0,STARLINK-4517,PAYLOAD,2024-05-11 13:11:34,15.08965987,7.01e-05,53.2164,239.0316,76.3716,283.7354,0.0045629,0.0007334,0.0,0 STARLINK-4517,1 53390U 22097C   24132.54971063  .00073340  00000-0  45629-2 0  9992,2 53390  53.2164 239.0316 0000701  76.3716 283.7354 15.08965987 97304,6917.495,95.43,539.845,538.875,0.0
53390.0,STARLINK-4517,PAYLOAD,2024-05-11 16:22:21,15.08902798,0.0001886,53.216,238.4351,87.39,272.7308,-0.0001763,-3.098e-05,0.0,0 STARLINK-4517,1 53390U 22097C   24132.68219251 -.00003098  00000-0 -17630-3 0  9998,2 53390  53.2160 238.4351 0001886  87.3900 272.7308 15.08902798 97324,6917.688,95.434,540.858,538.249,0.0
53390.0,STARLINK-4517,PAYLOAD,2024-05-12 13:02:32,15.08619613,0.0001852,53.2156,234.5722,122.142,237.9752,0.00043676,6.629e-05,0.0,0 STARLINK-4517,1 53390U 22097C   24133.54342641  .00006629  00000-0  43676-3 0  9994,2 53390  53.2156 234.5722 0001852 122.1420 237.9752 15.08619613 97457,6918.554,95.451,541.7,539.138,0.0
53390.0,STARLINK-4517,PAYLOAD,2024-05-12 16:13:18,15.08746129,9.08e-05,53.2163,233.9761,124.5899,235.5179,0.0074696,0.00120318,0.0,0 STARLINK-4517,1 53390U 22097C   24133.67590562  .00120318  00000-0  74696-2 0  9992,2 53390  53.2163 233.9761 0000908 124.5899 235.5179 15.08746129 97470,6918.167,95.443,540.66,539.404,0.0
53390.0,STARLINK-4517,PAYLOAD,2024-05-13 00:10:14,15.08807088,9.12e-05,53.2166,232.4904,130.3986,229.7086,0.0045179,0.00072287,0.0,0 STARLINK-4517,1 53390U 22097C   24134.00711275  .00072287  00000-0  45179-2 0  9991,2 53390  53.2166 232.4904 0000912 130.3986 229.7086 15.08807088 97523,6917.981,95.44,540.477,539.215,0.0
53390.0,STARLINK-4517,PAYLOAD,2024-05-13 12:53:18,15.08871201,0.0001604,53.2169,230.1097,87.1354,272.9822,0.0011095,0.00017429,0.0,0 STARLINK-4517,1 53390U 22097C   24134.53702355  .00017429  00000-0  11095-2 0  9995,2 53390  53.2169 230.1097 0001604  87.1354 272.9822 15.08871201 98405,6917.785,95.436,540.76,538.54,0.0
53390.0,STARLINK-4517,PAYLOAD,2024-05-14 12:44:02,15.08910878,0.0001583,53.2162,225.6492,85.26,274.8573,0.0012444,0.00019611,0.0,0 STARLINK-4517,1 53390U 22097C   24135.53058885  .00019611  00000-0  12444-2 0  9992,2 53390  53.2162 225.6492 0001583  85.2600 274.8573 15.08910878 98559,6917.664,95.433,540.624,538.434,0.0
53390.0,STARLINK-4517,PAYLOAD,2024-05-15 10:59:22,15.08850338,0.0001512,53.2166,221.4853,23.836,336.2702,0.00035132,5.309e-05,0.0,0 STARLINK-4517,1 53390U 22097C   24136.45789662  .00005309  00000-0  35132-3 0  9997,2 53390  53.2166 221.4853 0001512  23.8360 336.2702 15.08850338 97898,6917.849,95.437,540.76,538.668,0.0
53390.0,STARLINK-4517,PAYLOAD,2024-05-15 22:07:04,15.0884109,0.0001265,53.2163,219.3994,48.338,311.772,7.3168e-05,8.77e-06,0.0,0 STARLINK-4517,1 53390U 22097C   24136.92157827  .00000877  00000-0  73168-4 0  9998,2 53390  53.2163 219.3994 0001265  48.3380 311.7720 15.08841090 98766,6917.877,95.437,540.617,538.867,0.0
53390.0,STARLINK-4517,PAYLOAD,2024-05-16 12:25:32,15.08858111,0.0001503,53.2181,216.7318,104.4358,255.6801,0.00098409,0.00015416,0.0,0 STARLINK-4517,1 53390U 22097C   24137.51774247  .00015416  00000-0  98409-3 0  9994,2 53390  53.2181 216.7318 0001503 104.4358 255.6801 15.08858111 98859,6917.825,95.436,540.73,538.65,0.0
53390.0,STARLINK-4517,PAYLOAD,2024-05-16 15:36:19,15.08877457,0.000141,53.217,216.1332,95.0152,265.1002,0.0024014,0.00038177,0.0,0 STARLINK-4517,1 53390U 22097C   24137.65022017  .00038177  00000-0  24014-2 0  9999,2 53390  53.2170 216.1332 0001410  95.0152 265.1002 15.08877457 98078,6917.766,95.435,540.606,538.655,0.0
